{
  "type": "FeatureCollection",
  "features": [
    {
      "type": "Feature",
      "properties": {
        "norad_id": 39766,
        "name": "ALOS-2",
        "group": "resource",
        "lat": -63.5287823745483,
        "lon": -124.2741329438965,
        "alt_km": 639.002557550567,
        "timestamp": "2025-12-02T23:34:15.170606+00:00",
        "meta_object_name": "ALOS-2",
        "meta_object_id": "2014-029A",
        "meta_epoch": "2025-12-02T14:21:09.233856",
        "meta_mean_motion": 14.79446424,
        "meta_eccentricity": 0.000141,
        "meta_inclination": 97.9233,
        "meta_ra_of_asc_node": 71.5886,
        "meta_arg_of_pericenter": 108.1882,
        "meta_mean_anomaly": 251.9483,
        "meta_ephemeris_type": 0,
        "meta_classification_type": "U",
        "meta_norad_cat_id": 39766,
        "meta_element_set_no": 999,
        "meta_rev_at_epoch": 62251,
        "meta_bstar": 0.00036824,
        "meta_mean_motion_dot": 2.698e-05,
        "meta_mean_motion_ddot": 0,
        "tle_line1": "1 39766U 14029A   25336.59802354  .00002698  00000+0  36824-3 0  9992",
        "tle_line2": "2 39766  97.9233  71.5886 0001410 108.1882 251.9483 14.79446424622518"
      },
      "geometry": {
        "type": "Point",
        "coordinates": [
          -124.2741329438965,
          -63.5287823745483
        ]
      }
    },
    {
      "type": "Feature",
      "properties": {
        "norad_id": 40010,
        "name": "KAZEOSAT 2",
        "group": "resource",
        "lat": -44.28437178729232,
        "lon": -170.76644424880422,
        "alt_km": 618.2866573984529,
        "timestamp": "2025-12-02T23:34:15.170617+00:00",
        "meta_object_name": "KAZEOSAT 2",
        "meta_object_id": "2014-033A",
        "meta_epoch": "2025-12-02T12:27:11.169792",
        "meta_mean_motion": 14.8514062,
        "meta_eccentricity": 0.0007214,
        "meta_inclination": 97.5512,
        "meta_ra_of_asc_node": 181.3607,
        "meta_arg_of_pericenter": 245.1267,
        "meta_mean_anomaly": 114.9199,
        "meta_ephemeris_type": 0,
        "meta_classification_type": "U",
        "meta_norad_cat_id": 40010,
        "meta_element_set_no": 999,
        "meta_rev_at_epoch": 61976,
        "meta_bstar": 0.00013152,
        "meta_mean_motion_dot": 1.076e-05,
        "meta_mean_motion_ddot": 0,
        "tle_line1": "1 40010U 14033A   25336.51887928  .00001076  00000+0  13152-3 0  9991",
        "tle_line2": "2 40010  97.5512 181.3607 0007214 245.1267 114.9199 14.85140620619767"
      },
      "geometry": {
        "type": "Point",
        "coordinates": [
          -170.76644424880422,
          -44.28437178729232
        ]
      }
    },
    {
      "type": "Feature",
      "properties": {
        "norad_id": 40011,
        "name": "HODOYOSHI-4",
        "group": "resource",
        "lat": -37.0615306773091,
        "lon": 172.08903227630108,
        "alt_km": 611.9324861693322,
        "timestamp": "2025-12-02T23:34:15.170627+00:00",
        "meta_object_name": "HODOYOSHI-4",
        "meta_object_id": "2014-033B",
        "meta_epoch": "2025-12-02T12:26:14.534592",
        "meta_mean_motion": 14.87419965,
        "meta_eccentricity": 0.0022616,
        "meta_inclination": 97.5417,
        "meta_ra_of_asc_node": 165.9058,
        "meta_arg_of_pericenter": 235.7732,
        "meta_mean_anomaly": 124.1342,
        "meta_ephemeris_type": 0,
        "meta_classification_type": "U",
        "meta_norad_cat_id": 40011,
        "meta_element_set_no": 999,
        "meta_rev_at_epoch": 61956,
        "meta_bstar": 0.00025647,
        "meta_mean_motion_dot": 2.279e-05,
        "meta_mean_motion_ddot": 0,
        "tle_line1": "1 40011U 14033B   25336.51822378  .00002279  00000+0  25647-3 0  9998",
        "tle_line2": "2 40011  97.5417 165.9058 0022616 235.7732 124.1342 14.87419965619569"
      },
      "geometry": {
        "type": "Point",
        "coordinates": [
          172.08903227630108,
          -37.0615306773091
        ]
      }
    },
    {
      "type": "Feature",
      "properties": {
        "norad_id": 40013,
        "name": "DEIMOS-2",
        "group": "resource",
        "lat": -71.31432106248099,
        "lon": -123.619702112835,
        "alt_km": 596.6768224119442,
        "timestamp": "2025-12-02T23:34:15.170637+00:00",
        "meta_object_name": "DEIMOS-2",
        "meta_object_id": "2014-033D",
        "meta_epoch": "2025-12-02T12:38:12.015744",
        "meta_mean_motion": 14.92896081,
        "meta_eccentricity": 7.49e-05,
        "meta_inclination": 97.6073,
        "meta_ra_of_asc_node": 212.663,
        "meta_arg_of_pericenter": 82.5414,
        "meta_mean_anomaly": 277.589,
        "meta_ephemeris_type": 0,
        "meta_classification_type": "U",
        "meta_norad_cat_id": 40013,
        "meta_element_set_no": 999,
        "meta_rev_at_epoch": 60837,
        "meta_bstar": 0.0003089,
        "meta_mean_motion_dot": 3.148e-05,
        "meta_mean_motion_ddot": 0,
        "tle_line1": "1 40013U 14033D   25336.52652796  .00003148  00000+0  30890-3 0  9998",
        "tle_line2": "2 40013  97.6073 212.6630 0000749  82.5414 277.5890 14.92896081608376"
      },
      "geometry": {
        "type": "Point",
        "coordinates": [
          -123.619702112835,
          -71.31432106248099
        ]
      }
    },
    {
      "type": "Feature",
      "properties": {
        "norad_id": 40015,
        "name": "HODOYOSHI-3",
        "group": "resource",
        "lat": -18.13336492047315,
        "lon": 145.7540482683929,
        "alt_km": 608.3643075269601,
        "timestamp": "2025-12-02T23:34:15.170647+00:00",
        "meta_object_name": "HODOYOSHI-3",
        "meta_object_id": "2014-033F",
        "meta_epoch": "2025-12-02T10:42:48.571200",
        "meta_mean_motion": 14.84747728,
        "meta_eccentricity": 0.0031862,
        "meta_inclination": 97.6193,
        "meta_ra_of_asc_node": 142.7293,
        "meta_arg_of_pericenter": 283.1979,
        "meta_mean_anomaly": 76.5682,
        "meta_ephemeris_type": 0,
        "meta_classification_type": "U",
        "meta_norad_cat_id": 40015,
        "meta_element_set_no": 999,
        "meta_rev_at_epoch": 61842,
        "meta_bstar": 0.00027645,
        "meta_mean_motion_dot": 2.312e-05,
        "meta_mean_motion_ddot": 0,
        "tle_line1": "1 40015U 14033F   25336.44639550  .00002312  00000+0  27645-3 0  9990",
        "tle_line2": "2 40015  97.6193 142.7293 0031862 283.1979  76.5682 14.84747728618421"
      },
      "geometry": {
        "type": "Point",
        "coordinates": [
          145.7540482683929,
          -18.13336492047315
        ]
      }
    },
    {
      "type": "Feature",
      "properties": {
        "norad_id": 40053,
        "name": "SPOT 7",
        "group": "resource",
        "lat": -7.740792783006555,
        "lon": -141.8261705925845,
        "alt_km": 694.8437588995384,
        "timestamp": "2025-12-02T23:34:15.170657+00:00",
        "meta_object_name": "SPOT 7",
        "meta_object_id": "2014-034A",
        "meta_epoch": "2025-12-02T11:12:22.811616",
        "meta_mean_motion": 14.60712239,
        "meta_eccentricity": 0.0001515,
        "meta_inclination": 98.092,
        "meta_ra_of_asc_node": 38.7786,
        "meta_arg_of_pericenter": 97.6567,
        "meta_mean_anomaly": 262.4805,
        "meta_ephemeris_type": 0,
        "meta_classification_type": "U",
        "meta_norad_cat_id": 40053,
        "meta_element_set_no": 999,
        "meta_rev_at_epoch": 60841,
        "meta_bstar": 0.00017906,
        "meta_mean_motion_dot": 8.27e-06,
        "meta_mean_motion_ddot": 0,
        "tle_line1": "1 40053U 14034A   25336.46693069  .00000827  00000+0  17906-3 0  9998",
        "tle_line2": "2 40053  98.0920  38.7786 0001515  97.6567 262.4805 14.60712239608414"
      },
      "geometry": {
        "type": "Point",
        "coordinates": [
          -141.8261705925845,
          -7.740792783006555
        ]
      }
    },
    {
      "type": "Feature",
      "properties": {
        "norad_id": 40072,
        "name": "SKYSAT-B",
        "group": "resource",
        "lat": -81.62954987207333,
        "lon": 8.013564437538989,
        "alt_km": 613.810119059498,
        "timestamp": "2025-12-02T23:34:15.170667+00:00",
        "meta_object_name": "SKYSAT-B",
        "meta_object_id": "2014-037D",
        "meta_epoch": "2025-12-02T09:26:30.630048",
        "meta_mean_motion": 14.87263185,
        "meta_eccentricity": 0.0005305,
        "meta_inclination": 98.359,
        "meta_ra_of_asc_node": 279.5545,
        "meta_arg_of_pericenter": 182.3664,
        "meta_mean_anomaly": 177.7526,
        "meta_ephemeris_type": 0,
        "meta_classification_type": "U",
        "meta_norad_cat_id": 40072,
        "meta_element_set_no": 999,
        "meta_rev_at_epoch": 61670,
        "meta_bstar": 0.00032268,
        "meta_mean_motion_dot": 2.849e-05,
        "meta_mean_motion_ddot": 0,
        "tle_line1": "1 40072U 14037D   25336.39341007  .00002849  00000+0  32268-3 0  9990",
        "tle_line2": "2 40072  98.3590 279.5545 0005305 182.3664 177.7526 14.87263185616709"
      },
      "geometry": {
        "type": "Point",
        "coordinates": [
          8.013564437538989,
          -81.62954987207333
        ]
      }
    }
  ]
}